{"type": "FeatureCollection", "features": [ {"type": "Feature", "properties": {"norad_id": 42987, "name": "SKYSAT-C11", "group": "resource", "lat": -53.14727240508892, "lon": -57.7074163321684, "alt_km": 430.8920669057543, "timestamp": "2025-12-20T14:38:01.616041+00:00", "meta": {"OBJECT_NAME": "SKYSAT-C11", "OBJECT_ID": "2017-068A", "EPOCH": "2025-12-20T02:45:55.725120", "MEAN_MOTION": 15.47740992, "ECCENTRICITY": 0.0001158, "INCLINATION": 97.4144, "RA_OF_ASC_NODE": 131.7912, "ARG_OF_PERICENTER": 100.7649, "MEAN_ANOMALY": 259.3731, "EPHEMERIS_TYPE": 0, "CLASSIFICATION_TYPE": "U", "NORAD_CAT_ID": 42987, "ELEMENT_SET_NO": 999, "REV_AT_EPOCH": 45545, "BSTAR": 0.00030942, "MEAN_MOTION_DOT": 0.00015943, "MEAN_MOTION_DDOT": 0}, "tle": {"line1": "1 42987U 17068A   25354.11522830  .00015943  00000+0  30942-3 0  9995", "line2": "2 42987  97.4144 131.7912 0001158 100.7649 259.3731 15.47740992455458"}}, "geometry": {"type": "Point", "coordinates": [-57.7074163321684, -53.14727240508892]}}, {"type": "Feature", "properties": {"norad_id": 42988, "name": "SKYSAT-C10", "group": "resource", "lat": -56.05970475943474, "lon": -65.69252467498698, "alt_km": 479.6842966805625, "timestamp": "2025-12-20T14:38:01.616052+00:00", "meta": {"OBJECT_NAME": "SKYSAT-C10", "OBJECT_ID": "2017-068B", "EPOCH": "2025-12-20T02:37:56.935200", "MEAN_MOTION": 15.32208744, "ECCENTRICITY": 0.00054416, "INCLINATION": 97.4263, "RA_OF_ASC_NODE": 124.9815, "ARG_OF_PERICENTER": 83.4848, "MEAN_ANOMALY": 276.7013, "EPHEMERIS_TYPE": 0, "CLASSIFICATION_TYPE": "U", "NORAD_CAT_ID": 42988, "ELEMENT_SET_NO": 999, "REV_AT_EPOCH": 45492, "BSTAR": 0.00024785941, "MEAN_MOTION_DOT": 7.632e-05, "MEAN_MOTION_DDOT": 0}, "tle": {"line1": "1 42988U 17068B   25354.10968675  .00007632  00000+0  24786-3 0  9991", "line2": "2 42988  97.4263 124.9815 0005441  83.4848 276.7013 15.32208744454929"}}, "geometry": {"type": "Point", "coordinates": [-65.69252467498698, -56.05970475943474]}}, {"type": "Feature", "properties": {"norad_id": 42989, "name": "SKYSAT-C9", "group": "resource", "lat": -17.55081014676322, "lon": -57.43577004065228, "alt_km": 467.42714735560185, "timestamp": "2025-12-20T14:38:01.616062+00:00", "meta": {"OBJECT_NAME": "SKYSAT-C9", "OBJECT_ID": "2017-068C", "EPOCH": "2025-12-19T22:08:39.748128", "MEAN_MOTION": 15.36222028, "ECCENTRICITY": 0.0010522, "INCLINATION": 97.42, "RA_OF_ASC_NODE": 124.2339, "ARG_OF_PERICENTER": 64.896, "MEAN_ANOMALY": 295.3374, "EPHEMERIS_TYPE": 0, "CLASSIFICATION_TYPE": "U", "NORAD_CAT_ID": 42989, "ELEMENT_SET_NO": 999, "REV_AT_EPOCH": 45518, "BSTAR": 0.00026715, "MEAN_MOTION_DOT": 9.366e-05, "MEAN_MOTION_DDOT": 0}, "tle": {"line1": "1 42989U 17068C   25353.92268227  .00009366  00000+0  26715-3 0  9997", "line2": "2 42989  97.4200 124.2339 0010522  64.8960 295.3374 15.36222028455180"}}, "geometry": {"type": "Point", "coordinates": [-57.43577004065228, -17.55081014676322]}}, {"type": "Feature", "properties": {"norad_id": 42990, "name": "SKYSAT-C8", "group": "resource", "lat": 77.0797920965187, "lon": 89.98075426185335, "alt_km": 459.9057405236372, "timestamp": "2025-12-20T14:38:01.616071+00:00", "meta": {"OBJECT_NAME": "SKYSAT-C8", "OBJECT_ID": "2017-068D", "EPOCH": "2025-12-19T22:37:25.665024", "MEAN_MOTION": 15.33070014, "ECCENTRICITY": 0.0001092, "INCLINATION": 97.4285, "RA_OF_ASC_NODE": 123.9747, "ARG_OF_PERICENTER": 308.4211, "MEAN_ANOMALY": 51.6933, "EPHEMERIS_TYPE": 0, "CLASSIFICATION_TYPE": "U", "NORAD_CAT_ID": 42990, "ELEMENT_SET_NO": 999, "REV_AT_EPOCH": 45481, "BSTAR": 0.00025399, "MEAN_MOTION_DOT": 8.035e-05, "MEAN_MOTION_DDOT": 0}, "tle": {"line1": "1 42990U 17068D   25353.94265816  .00008035  00000+0  25399-3 0  9991", "line2": "2 42990  97.4285 123.9747 0001092 308.4211  51.6933 15.33070014454818"}}, "geometry": {"type": "Point", "coordinates": [89.98075426185335, 77.0797920965187]}}, {"type": "Feature", "properties": {"norad_id": 42991, "name": "SKYSAT-C7", "group": "resource", "lat": -79.21545741496037, "lon": 168.91873317768756, "alt_km": 477.81898834191725, "timestamp": "2025-12-20T14:38:01.616082+00:00", "meta": {"OBJECT_NAME": "SKYSAT-C7", "OBJECT_ID": "2017-068E", "EPOCH": "2025-12-20T02:27:17.811072", "MEAN_MOTION": 15.32471858, "ECCENTRICITY": 0.00071928, "INCLINATION": 97.4292, "RA_OF_ASC_NODE": 125.1704, "ARG_OF_PERICENTER": 34.1926, "MEAN_ANOMALY": 325.9777, "EPHEMERIS_TYPE": 0, "CLASSIFICATION_TYPE": "U", "NORAD_CAT_ID": 42991, "ELEMENT_SET_NO": 999, "REV_AT_EPOCH": 45490, "BSTAR": 0.00024418873, "MEAN_MOTION_DOT": 7.583e-05, "MEAN_MOTION_DDOT": 0}, "tle": {"line1": "1 42991U 17068E   25354.10228948  .00007583  00000+0  24419-3 0  9995", "line2": "2 42991  97.4292 125.1704 0007192  34.1926 325.9777 15.32471858454900"}}, "geometry": {"type": "Point", "coordinates": [168.91873317768756, -79.21545741496037]}}, {"type": "Feature", "properties": {"norad_id": 42992, "name": "SKYSAT-C6", "group": "resource", "lat": 10.845597681537386, "lon": 124.67846301222097, "alt_km": 470.2850952223671, "timestamp": "2025-12-20T14:38:01.616092+00:00", "meta": {"OBJECT_NAME": "SKYSAT-C6", "OBJECT_ID": "2017-068F", "EPOCH": "2025-12-19T21:20:18.812832", "MEAN_MOTION": 15.31627446, "ECCENTRICITY": 0.0004995, "INCLINATION": 97.4326, "RA_OF_ASC_NODE": 125.389, "ARG_OF_PERICENTER": 63.135, "MEAN_ANOMALY": 297.0401, "EPHEMERIS_TYPE": 0, "CLASSIFICATION_TYPE": "U", "NORAD_CAT_ID": 42992, "ELEMENT_SET_NO": 999, "REV_AT_EPOCH": 45485, "BSTAR": 0.00024148, "MEAN_MOTION_DOT": 7.299e-05, "MEAN_MOTION_DDOT": 0}, "tle": {"line1": "1 42992U 17068F   25353.88910663  .00007299  00000+0  24148-3 0  9995", "line2": "2 42992  97.4326 125.3890 0004995  63.1350 297.0401 15.31627446454850"}}, "geometry": {"type": "Point", "coordinates": [124.67846301222097, 10.845597681537386]}}, {"type": "Feature", "properties": {"norad_id": 43111, "name": "CARTOSAT-2F", "group": "resource", "lat": 49.70645425411365, "lon": -119.02419506394322, "alt_km": 502.897604206144, "timestamp": "2025-12-20T14:38:01.616101+00:00", "meta": {"OBJECT_NAME": "CARTOSAT-2F", "OBJECT_ID": "2018-004A", "EPOCH": "2025-12-20T06:09:40.140576", "MEAN_MOTION": 15.19190811, "ECCENTRICITY": 0.00013871, "INCLINATION": 97.4309, "RA_OF_ASC_NODE": 51.7735, "ARG_OF_PERICENTER": 112.1806, "MEAN_ANOMALY": 247.9576, "EPHEMERIS_TYPE": 0, "CLASSIFICATION_TYPE": "U", "NORAD_CAT_ID": 43111, "ELEMENT_SET_NO": 999, "REV_AT_EPOCH": 44016, "BSTAR": 0.0001571474, "MEAN_MOTION_DOT": 3.238e-05, "MEAN_MOTION_DDOT": 0}, "tle": {"line1": "1 43111U 18004A   25354.25671459  .00003238  00000+0  15715-3 0  9998", "line2": "2 43111  97.4309  51.7735 0001387 112.1806 247.9576 15.19190811440161"}}, "geometry": {"type": "Point", "coordinates": [-119.02419506394322, 49.70645425411365]}}, {"type": "Feature", "properties": {"norad_id": 43259, "name": "GAOFEN-1 02", "group": "resource", "lat": 54.88575514041321, "lon": -115.94205647295085, "alt_km": 634.6877657984714, "timestamp": "2025-12-20T14:38:01.616118+00:00", "meta": {"OBJECT_NAME": "GAOFEN-1 02", "OBJECT_ID": "2018-031A", "EPOCH": "2025-12-20T07:34:00.606720", "MEAN_MOTION": 14.76428561, "ECCENTRICITY": 0.00022606, "INCLINATION": 98.0801, "RA_OF_ASC_NODE": 52.1079, "ARG_OF_PERICENTER": 187.9041, "MEAN_ANOMALY": 172.2133, "EPHEMERIS_TYPE": 0, "CLASSIFICATION_TYPE": "U", "NORAD_CAT_ID": 43259, "ELEMENT_SET_NO": 999, "REV_AT_EPOCH": 41630, "BSTAR": 5.7068265e-05, "MEAN_MOTION_DOT": 3.45e-06, "MEAN_MOTION_DDOT": 0}, "tle": {"line1": "1 43259U 18031A   25354.31528480  .00000345  00000+0  57068-4 0  9997", "line2": "2 43259  98.0801  52.1079 0002260 187.9041 172.2133 14.76428561416302"}}, "geometry": {"type": "Point", "coordinates": [-115.94205647295085, 54.88575514041321]}}, {"type": "Feature", "properties": {"norad_id": 43260, "name": "GAOFEN-1 03", "group": "resource", "lat": -59.11627284327105, "lon": -141.4603943753619, "alt_km": 646.7791490078762, "timestamp": "2025-12-20T14:38:01.616128+00:00", "meta": {"OBJECT_NAME": "GAOFEN-1 03", "OBJECT_ID": "2018-031B", "EPOCH": "2025-12-20T07:02:37.410720", "MEAN_MOTION": 14.76451131, "ECCENTRICITY": 0.00017012, "INCLINATION": 98.0789, "RA_OF_ASC_NODE": 51.9615, "ARG_OF_PERICENTER": 282.4629, "MEAN_ANOMALY": 77.639, "EPHEMERIS_TYPE": 0, "CLASSIFICATION_TYPE": "U", "NORAD_CAT_ID": 43260, "ELEMENT_SET_NO": 999, "REV_AT_EPOCH": 41629, "BSTAR": 9.9737516e-05, "MEAN_MOTION_DOT": 6.42e-06, "MEAN_MOTION_DDOT": 0}, "tle": {"line1": "1 43260U 18031B   25354.29348855  .00000642  00000+0  99738-4 0  9992", "line2": "2 43260  98.0789  51.9615 0001701 282.4629  77.6390 14.76451131416294"}}, "geometry": {"type": "Point", "coordinates": [-141.4603943753619, -59.11627284327105]}}, {"type": "Feature", "properties": {"norad_id": 43262, "name": "GAOFEN-1 04", "group": "resource", "lat": 9.3207942504182, "lon": 51.11281608998867, "alt_km": 641.9924500155521, "timestamp": "2025-12-20T14:38:01.616138+00:00", "meta": {"OBJECT_NAME": "GAOFEN-1 04", "OBJECT_ID": "2018-031D", "EPOCH": "2025-12-20T06:27:30.942432", "MEAN_MOTION": 14.76421956, "ECCENTRICITY": 7.23e-05, "INCLINATION": 98.0804, "RA_OF_ASC_NODE": 52.1082, "ARG_OF_PERICENTER": 54.8857, "MEAN_ANOMALY": 305.242, "EPHEMERIS_TYPE": 0, "CLASSIFICATION_TYPE": "U", "NORAD_CAT_ID": 43262, "ELEMENT_SET_NO": 999, "REV_AT_EPOCH": 41628, "BSTAR": 0.00015760256, "MEAN_MOTION_DOT": 1.044e-05, "MEAN_MOTION_DDOT": 0}, "tle": {"line1": "1 43262U 18031D   25354.26910813  .00001044  00000+0  15760-3 0  9999", "line2": "2 43262  98.0804  52.1082 0000723  54.8857 305.2420 14.76421956416287"}}, "geometry": {"type": "Point", "coordinates": [51.11281608998867, 9.3207942504182]}}]}